$$SOE
2461295.500000000, A.D. 2026-Sep-12 00:00:00.0000, 3.163664575982634E+08, 3.088561554536837E+08, 3.793274526972990E+07,
2461302.500000000, A.D. 2026-Sep-19 00:00:00.0000, 3.099201844266865E+08, 3.170839843102159E+08, 3.775799597191648E+07,
2461309.500000000, A.D. 2026-Sep-26 00:00:00.0000, 3.033031551927144E+08, 3.251371089052321E+08, 3.756244297691253E+07,
2461316.500000000, A.D. 2026-Oct-03 00:00:00.0000, 2.965203951247911E+08, 3.330125713525665E+08, 3.734636518984987E+07,
2461323.500000000, A.D. 2026-Oct-10 00:00:00.0000, 2.895769398254789E+08, 3.407075612337372E+08, 3.711004836426929E+07,
2461330.500000000, A.D. 2026-Oct-17 00:00:00.0000, 2.824778313110512E+08, 3.482194128672645E+08, 3.685378468146853E+07,
2461337.500000000, A.D. 2026-Oct-24 00:00:00.0000, 2.752281142558990E+08, 3.555456024368786E+08, 3.657787233783858E+07,
2461344.500000000, A.D. 2026-Oct-31 00:00:00.0000, 2.678328325358019E+08, 3.626837449220171E+08, 3.628261512573124E+07,
2461351.500000000, A.D. 2026-Nov-07 00:00:00.0000, 2.602970264039369E+08, 3.696315909134316E+08, 3.596832198267587E+07,
2461358.500000000, A.D. 2026-Nov-14 00:00:00.0000, 2.526257304947038E+08, 3.763870242083114E+08, 3.563530656259808E+07,
2461365.500000000, A.D. 2026-Nov-21 00:00:00.0000, 2.448239708352523E+08, 3.829480608712897E+08, 3.528388705012892E+07,
2461372.500000000, A.D. 2026-Nov-28 00:00:00.0000, 2.368967598550914E+08, 3.893128467599115E+08, 3.491438606356731E+07,
2461379.500000000, A.D. 2026-Dec-05 00:00:00.0000, 2.288490930055975E+08, 3.954796528699796E+08, 3.452713026173475E+07,
2461386.500000000, A.D. 2026-Dec-12 00:00:00.0000, 2.206859471497091E+08, 4.014468716211731E+08, 3.412244989432347E+07,
2461393.500000000, A.D. 2026-Dec-19 00:00:00.0000, 2.124122788287506E+08, 4.072130140963471E+08, 3.370067846958300E+07,
2461400.500000000, A.D. 2026-Dec-26 00:00:00.0000, 2.040330222583697E+08, 4.127767073731177E+08, 3.326215248168451E+07,
2461407.500000000, A.D. 2027-Jan-02 00:00:00.0000, 1.955530873239101E+08, 4.181366917623773E+08, 3.280721115686268E+07,
2461414.500000000, A.D. 2027-Jan-09 00:00:00.0000, 1.869773576859975E+08, 4.232918179782462E+08, 3.233619620904031E+07,
2461421.500000000, A.D. 2027-Jan-16 00:00:00.0000, 1.783106890246509E+08, 4.282410442517762E+08, 3.184945160206488E+07,
2461428.500000000, A.D. 2027-Jan-23 00:00:00.0000, 1.695579074602238E+08, 4.329834333517838E+08, 3.134732331067702E+07,
2461435.500000000, A.D. 2027-Jan-30 00:00:00.0000, 1.607238083308738E+08, 4.375181494678752E+08, 3.083015905863866E+07,
2461442.500000000, A.D. 2027-Feb-06 00:00:00.0000, 1.518131557434618E+08, 4.418444552987857E+08, 3.029830802239972E+07,
2461449.500000000, A.D. 2027-Feb-13 00:00:00.0000, 1.428306824307959E+08, 4.459617105684524E+08, 2.975212064161363E+07,
2461456.500000000, A.D. 2027-Feb-20 00:00:00.0000, 1.337810875444419E+08, 4.498693711788525E+08, 2.919194868780896E+07,
2461463.500000000, A.D. 2027-Feb-27 00:00:00.0000, 1.246690337701176E+08, 4.535669857865644E+08, 2.861814520004579E+07,
2461470.500000000, A.D. 2027-Mar-06 00:00:00.0000, 1.154991467774774E+08, 4.570541917300198E+08, 2.803106416762257E+07,
2461477.500000000, A.D. 2027-Mar-13 00:00:00.0000, 1.062760153999410E+08, 4.603307123588214E+08, 2.743106027341783E+07,
2461484.500000000, A.D. 2027-Mar-20 00:00:00.0000, 9.700419140982999E+07, 4.633963549304786E+08, 2.681848873256478E+07,
2461491.500000000, A.D. 2027-Mar-27 00:00:00.0000, 8.768818908535327E+07, 4.662510085261928E+08, 2.619370516257796E+07,
2461498.500000000, A.D. 2027-Apr-03 00:00:00.0000, 7.833248476734437E+07, 4.688946419387549E+08, 2.555706546198848E+07,
2461505.500000000, A.D. 2027-Apr-10 00:00:00.0000, 6.894151646230829E+07, 4.713273015562274E+08, 2.490892569335523E+07,
2461512.500000000, A.D. 2027-Apr-17 00:00:00.0000, 5.951968350935210E+07, 4.735491092274800E+08, 2.424964196708086E+07,
2461519.500000000, A.D. 2027-Apr-24 00:00:00.0000, 5.007134638582242E+07, 4.755602600475950E+08, 2.357957031334397E+07,
2461526.500000000, A.D. 2027-May-01 00:00:00.0000, 4.060082694692702E+07, 4.773610200911252E+08, 2.289906651664266E+07,
2461533.500000000, A.D. 2027-May-08 00:00:00.0000, 3.111240940260388E+07, 4.789517248422482E+08, 2.220848594565469E+07,
2461540.500000000, A.D. 2027-May-15 00:00:00.0000, 2.161034053171386E+07, 4.803327792758195E+08, 2.150818359326684E+07,
2461547.500000000, A.D. 2027-May-22 00:00:00.0000, 1.209882756673990E+07, 4.815046569955443E+08, 2.079851425798526E+07,
2461554.500000000, A.D. 2027-May-29 00:00:00.0000, 2.582037099580365E+06, 4.824678969593942E+08, 2.007983243888068E+07,
2461561.500000000, A.D. 2027-Jun-05 00:00:00.0000, -6.935904110743764E+06, 4.832231009260868E+08, 1.935249211881146E+07,
2461568.500000000, A.D. 2027-Jun-12 00:00:00.0000, -1.645090843816149E+07, 4.837709320547273E+08, 1.861684665506184E+07,
2461575.500000000, A.D. 2027-Jun-19 00:00:00.0000, -2.595892713130768E+07, 4.841121137214628E+08, 1.787324873117524E+07,
2461582.500000000, A.D. 2027-Jun-26 00:00:00.0000, -3.545595022060345E+07, 4.842474282911760E+08, 1.712205032291830E+07,
2461589.500000000, A.D. 2027-Jul-03 00:00:00.0000, -4.493800646112547E+07, 4.841777158520433E+08, 1.636360266687250E+07,
2461596.500000000, A.D. 2027-Jul-10 00:00:00.0000, -5.440116327651878E+07, 4.839038729208509E+08, 1.559825622889563E+07,
2461603.500000000, A.D. 2027-Jul-17 00:00:00.0000, -6.384152666944078E+07, 4.834268510786026E+08, 1.482636066585055E+07,
2461610.500000000, A.D. 2027-Jul-24 00:00:00.0000, -7.325524094420172E+07, 4.827476554712569E+08, 1.404826476105309E+07,
2461617.500000000, A.D. 2027-Jul-31 00:00:00.0000, -8.263848783310151E+07, 4.818673434086764E+08, 1.326431631497833E+07,
2461624.500000000, A.D. 2027-Aug-07 00:00:00.0000, -9.198748523086618E+07, 4.807870242125107E+08, 1.247486210382929E+07,
2461631.500000000, A.D. 2027-Aug-14 00:00:00.0000, -1.012984878410346E+08, 4.795078600600417E+08, 1.168024809627840E+07,
2461638.500000000, A.D. 2027-Aug-21 00:00:00.0000, -1.105677891178504E+08, 4.780310644583920E+08, 1.088081959668225E+07,
2461645.500000000, A.D. 2027-Aug-28 00:00:00.0000, -1.197917210759621E+08, 4.763578995516169E+08, 1.007692109839928E+07,
2461652.500000000, A.D. 2027-Sep-04 00:00:00.0000, -1.289666531512538E+08, 4.744896747649245E+08, 9.268896159660637E+06,
2461659.500000000, A.D. 2027-Sep-11 00:00:00.0000, -1.380889915084963E+08, 4.724277461246507E+08, 8.457087375365943E+06,
2461666.500000000, A.D. 2027-Sep-18 00:00:00.0000, -1.471551786635593E+08, 4.701735156021566E+08, 7.641836378960997E+06,
2461673.500000000, A.D. 2027-Sep-25 00:00:00.0000, -1.561616931928241E+08, 4.677284304025667E+08, 6.823483846607924E+06,
2461680.500000000, A.D. 2027-Oct-02 00:00:00.0000, -1.651050494563506E+08, 4.650939822248303E+08, 6.002369498577088E+06,
2461687.500000000, A.D. 2027-Oct-09 00:00:00.0000, -1.739817973138722E+08, 4.622717064877348E+08, 5.178832095019132E+06,
2461694.500000000, A.D. 2027-Oct-16 00:00:00.0000, -1.827885217718804E+08, 4.592631814661931E+08, 4.353209415466815E+06,
2461701.500000000, A.D. 2027-Oct-23 00:00:00.0000, -1.915218423033125E+08, 4.560700273313042E+08, 3.525838197449505E+06,
2461708.500000000, A.D. 2027-Oct-30 00:00:00.0000, -2.001784114667154E+08, 4.526939057038085E+08, 2.697054049464524E+06,
2461715.500000000, A.D. 2027-Nov-06 00:00:00.0000, -2.087549139901151E+08, 4.491365208491845E+08, 1.867191536916405E+06,
2461722.500000000, A.D. 2027-Nov-13 00:00:00.0000, -2.172480683055966E+08, 4.453996204383633E+08, 1.036584453126490E+06,
2461729.500000000, A.D. 2027-Nov-20 00:00:00.0000, -2.256546276326618E+08, 4.414849936857286E+08, 2.055658306032121E+05,
2461736.500000000, A.D. 2027-Nov-27 00:00:00.0000, -2.339713789952089E+08, 4.373944698269761E+08, -6.255322134752572E+05,
2461743.500000000, A.D. 2027-Dec-04 00:00:00.0000, -2.421951421978954E+08, 4.331299178515409E+08, -1.456378537497222E+06,
2461750.500000000, A.D. 2027-Dec-11 00:00:00.0000, -2.503227693131462E+08, 4.286932465255418E+08, -2.286642969807893E+06,
2461757.500000000, A.D. 2027-Dec-18 00:00:00.0000, -2.583511444046189E+08, 4.240864043651532E+08, -3.115996290213764E+06,
2461764.500000000, A.D. 2027-Dec-25 00:00:00.0000, -2.662771833362196E+08, 4.193113795573732E+08, -3.944110212732047E+06,
2461771.500000000, A.D. 2028-Jan-01 00:00:00.0000, -2.740978336263126E+08, 4.143701998421117E+08, -4.770657372206300E+06,
$$EOE